[{"OBJECT_NAME":"HAWK-11A","OBJECT_ID":"2024-247F","EPOCH":"2026-03-09T12:17:43.893312","MEAN_MOTION":15.28849427,"ECCENTRICITY":0.00054663,"INCLINATION":44.9941,"RA_OF_ASC_NODE":114.3328,"ARG_OF_PERICENTER":327.3713,"MEAN_ANOMALY":32.6832,"EPHEMERIS_TYPE":0,"CLASSIFICATION_TYPE":"U","NORAD_CAT_ID":62382,"ELEMENT_SET_NO":999,"REV_AT_EPOCH":6774,"BSTAR":0.00034106017,"MEAN_MOTION_DOT":9.457e-5,"MEAN_MOTION_DDOT":0},{"OBJECT_NAME":"STARLINK-33891","OBJECT_ID":"2025-092Z","EPOCH":"2026-03-09T07:41:05.495136","MEAN_MOTION":15.27590697,"ECCENTRICITY":0.00029114,"INCLINATION":42.9989,"RA_OF_ASC_NODE":175.0118,"ARG_OF_PERICENTER":294.0448,"MEAN_ANOMALY":66.0099,"EPHEMERIS_TYPE":0,"CLASSIFICATION_TYPE":"U","NORAD_CAT_ID":63827,"ELEMENT_SET_NO":999,"REV_AT_EPOCH":4849,"BSTAR":0.0013112766,"MEAN_MOTION_DOT":0.00036012,"MEAN_MOTION_DDOT":0}]
